NORAD_CAT_ID,OBJECT_NAME,OBJECT_TYPE,EPOCH,MEAN_MOTION,ECCENTRICITY,INCLINATION,RA_OF_ASC_NODE,ARG_OF_PERICENTER,MEAN_ANOMALY,BSTAR,MEAN_MOTION_DOT,MEAN_MOTION_DDOT,TLE_LINE0,TLE_LINE1,TLE_LINE2,SEMIMAJOR_AXIS,PERIOD,APOGEE,PERIGEE,DECAYED
53545.0,STARLINK-4475,PAYLOAD,2024-04-21 17:22:09,15.08838489,0.0001628,53.217,268.0272,115.7635,244.3526,0.0005382,8.287e-05,0.0,0 STARLINK-4475,1 53545U 22101U   24112.72371909  .00008287  00000-0  53820-3 0  9992,2 53545  53.2170 268.0272 0001628 115.7635 244.3526 15.08838489 92599,6917.885,95.438,540.876,538.624,0.0
53545.0,STARLINK-4475,PAYLOAD,2024-04-22 18:48:20,15.0883713,0.0001337,53.2174,263.2679,98.7889,261.3255,0.00030528,4.574e-05,0.0,0 STARLINK-4475,1 53545U 22101U   24113.78356609  .00004574  00000-0  30528-3 0  9994,2 53545  53.2174 263.2679 0001337  98.7889 261.3255 15.08837130 92757,6917.889,95.438,540.679,538.829,0.0
53545.0,STARLINK-4475,PAYLOAD,2024-04-23 13:52:58,15.08835439,0.0001497,53.2173,259.7044,127.28,232.8329,0.00012441,1.692e-05,0.0,0 STARLINK-4475,1 53545U 22101U   24114.57844963  .00001692  00000-0  12441-3 0  9999,2 53545  53.2173 259.7044 0001497 127.2800 232.8329 15.08835439 93565,6917.894,95.438,540.795,538.724,0.0
53545.0,STARLINK-4475,PAYLOAD,2024-04-23 20:14:30,15.08855869,0.0001316,53.2168,258.5072,105.347,254.7668,0.00049758,7.643e-05,0.0,0 STARLINK-4475,1 53545U 22101U   24114.84340301  .00007643  00000-0  49758-3 0  9999,2 53545  53.2168 258.5072 0001316 105.3470 254.7668 15.08855869 92913,6917.832,95.437,540.607,538.786,0.0
53545.0,STARLINK-4475,PAYLOAD,2024-04-24 13:43:45,15.08839307,0.0001865,53.2166,255.2291,127.6791,232.4371,4.256e-05,3.89e-06,0.0,0 STARLINK-4475,1 53545U 22101U   24115.57204950  .00000389  00000-0  42560-4 0  9994,2 53545  53.2166 255.2291 0001865 127.6791 232.4371 15.08839307 93712,6917.883,95.438,541.038,538.457,0.0
53545.0,STARLINK-4475,PAYLOAD,2024-04-24 16:54:31,15.08851231,0.0001159,53.2172,254.6467,84.0696,276.0428,0.00032872,4.949e-05,0.0,0 STARLINK-4475,1 53545U 22101U   24115.70452844  .00004949  00000-0  32872-3 0  9996,2 53545  53.2172 254.6467 0001159  84.0696 276.0428 15.08851231 93046,6917.846,95.437,540.513,538.909,0.0
53545.0,STARLINK-4475,PAYLOAD,2024-04-25 08:48:22,15.08835811,0.0001474,53.2166,251.6684,145.1259,214.983,-0.00015845,-2.809e-05,0.0,0 STARLINK-4475,1 53545U 22101U   24116.36693109 -.00002809  00000-0 -15845-3 0  9996,2 53545  53.2166 251.6684 0001474 145.1259 214.9830 15.08835811 93146,6917.893,95.438,540.778,538.738,0.0
53545.0,STARLINK-4475,PAYLOAD,2024-04-25 13:34:32,15.08841294,0.000138,53.2166,250.7851,94.7831,265.3319,3.964e-05,3.43e-06,0.0,0 STARLINK-4475,1 53545U 22101U   24116.56565442  .00000343  00000-0  39640-4 0  9995,2 53545  53.2166 250.7851 0001380  94.7831 265.3319 15.08841294 93866,6917.876,95.437,540.696,538.787,0.0
53545.0,STARLINK-4475,PAYLOAD,2024-04-25 15:09:55,15.08843543,0.000143,53.2168,250.4898,71.6829,288.4319,0.00012018,1.625e-05,0.0,0 STARLINK-4475,1 53545U 22101U   24116.63189544  .00001625  00000-0  12018-3 0  9991,2 53545  53.2168 250.4898 0001430  71.6829 288.4319 15.08843543 93879,6917.87,95.437,540.724,538.745,0.0
53545.0,STARLINK-4475,PAYLOAD,2024-04-26 13:25:20,15.08842073,0.000165,53.2184,246.3291,66.4934,293.6231,0.0001107,1.474e-05,0.0,0 STARLINK-4475,1 53545U 22101U   24117.55925985  .00001474  00000-0  11070-3 0  9999,2 53545  53.2184 246.3291 0001650  66.4934 293.6231 15.08842073 93329,6917.874,95.437,540.881,538.598,0.0
53545.0,STARLINK-4475,PAYLOAD,2024-04-26 15:00:42,15.08852292,0.0001032,53.2174,246.0241,78.9817,281.1292,0.00031227,4.687e-05,0.0,0 STARLINK-4475,1 53545U 22101U   24117.62549414  .00004687  00000-0  31227-3 0  9991,2 53545  53.2174 246.0241 0001032  78.9817 281.1292 15.08852292 94023,6917.843,95.437,540.422,538.994,0.0
53545.0,STARLINK-4475,PAYLOAD,2024-04-27 14:51:28,15.08869022,0.0001358,53.2174,241.5636,107.2891,252.825,0.00045026,6.891e-05,0.0,0 STARLINK-4475,1 53545U 22101U   24118.61907717  .00006891  00000-0  45026-3 0  9996,2 53545  53.2174 241.5636 0001358 107.2891 252.8250 15.08869022 94174,6917.792,95.436,540.596,538.717,0.0
53545.0,STARLINK-4475,PAYLOAD,2024-04-28 13:06:53,15.08834928,0.0001542,53.217,237.3972,103.8374,256.279,-0.00026618,-4.521e-05,0.0,0 STARLINK-4475,1 53545U 22101U   24119.54645031 -.00004521  00000-0 -26618-3 0  9993,2 53545  53.2170 237.3972 0001542 103.8374 256.2790 15.08834928 93622,6917.896,95.438,540.828,538.694,0.0
53545.0,STARLINK-4475,PAYLOAD,2024-04-28 14:42:16,15.08830397,0.0001436,53.2164,237.1004,75.0828,285.0323,-0.00030643,-5.16e-05,0.0,0 STARLINK-4475,1 53545U 22101U   24119.61269326 -.00005160  00000-0 -30643-3 0  9993,2 53545  53.2164 237.1004 0001436  75.0828 285.0323 15.08830397 94321,6917.91,95.438,540.768,538.781,0.0
53545.0,STARLINK-4475,PAYLOAD,2024-04-29 14:33:04,15.08841179,0.0001376,53.2165,232.6463,78.2756,281.8391,0.00023909,3.519e-05,0.0,0 STARLINK-4475,1 53545U 22101U   24120.60629683  .00003519  00000-0  23909-3 0  9991,2 53545  53.2165 232.6463 0001376  78.2756 281.8391 15.08841179 94474,6917.877,95.437,540.694,538.79,0.0
53545.0,STARLINK-4475,PAYLOAD,2024-04-30 12:48:28,15.08839648,0.0001386,53.216,228.4831,76.4912,283.6235,0.00025208,3.726e-05,0.0,0 STARLINK-4475,1 53545U 22101U   24121.53366067  .00003726  00000-0  25208-3 0  9992,2 53545  53.2160 228.4831 0001386  76.4912 283.6235 15.08839648 93920,6917.881,95.438,540.705,538.788,0.0
53545.0,STARLINK-4475,PAYLOAD,2024-04-30 14:23:51,15.08839961,0.0001388,53.2166,228.1865,80.1403,279.9746,0.00030936,4.639e-05,0.0,0 STARLINK-4475,1 53545U 22101U   24121.59990066  .00004639  00000-0  30936-3 0  9998,2 53545  53.2166 228.1865 0001388  80.1403 279.9746 15.08839961 94620,6917.881,95.438,540.706,538.785,0.0
53545.0,STARLINK-4475,PAYLOAD,2024-04-30 23:56:10,15.08842127,0.0001368,53.2163,226.4024,81.4089,278.7058,0.00023178,3.403e-05,0.0,0 STARLINK-4475,1 53545U 22101U   24121.99733931  .00003403  00000-0  23178-3 0  9996,2 53545  53.2163 226.4024 0001368  81.4089 278.7058 15.08842127 94684,6917.874,95.437,540.685,538.793,0.0
53545.0,STARLINK-4475,PAYLOAD,2024-05-01 23:46:56,15.08846361,0.0001343,53.2157,221.9416,82.9322,277.1823,9.6988e-05,1.256e-05,0.0,0 STARLINK-4475,1 53545U 22101U   24122.99093443  .00001256  00000-0  96988-4 0  9998,2 53545  53.2157 221.9416 0001343  82.9322 277.1823 15.08846361 94149,6917.861,95.437,540.655,538.797,0.0
53545.0,STARLINK-4475,PAYLOAD,2024-05-02 12:30:03,15.08831914,0.0001335,53.2151,219.5614,87.519,272.5955,-9.3668e-05,-1.778e-05,0.0,0 STARLINK-4475,1 53545U 22101U   24123.52087066 -.00001778  00000-0 -93668-4 0  9995,2 53545  53.2151 219.5614 0001335  87.5190 272.5955 15.08831914 94223,6917.905,95.438,540.694,538.847,0.0
53545.0,STARLINK-4475,PAYLOAD,2024-05-02 14:05:25,15.0883877,0.000136,53.2168,219.2649,83.9564,276.1583,1.4667e-05,-5.4e-07,0.0,0 STARLINK-4475,1 53545U 22101U   24123.58710438 -.00000054  00000-0  14667-4 0  9994,2 53545  53.2168 219.2649 0001360  83.9564 276.1583 15.08838770 94920,6917.884,95.438,540.69,538.808,0.0
53545.0,STARLINK-4475,PAYLOAD,2024-05-03 12:20:48,15.08837771,0.0001288,53.215,215.0994,93.8494,266.2646,0.00025901,3.836e-05,0.0,0 STARLINK-4475,1 53545U 22101U   24124.51445242  .00003836  00000-0  25901-3 0  9998,2 53545  53.2150 215.0994 0001288  93.8494 266.2646 15.08837771 94378,6917.887,95.438,540.643,538.861,0.0
53545.0,STARLINK-4475,PAYLOAD,2024-05-03 23:28:31,15.08835045,0.0001406,53.2168,213.0189,92.4998,267.6156,0.00020657,3.001e-05,0.0,0 STARLINK-4475,1 53545U 22101U   24124.97813742  .00003001  00000-0  20657-3 0  9999,2 53545  53.2168 213.0189 0001406  92.4998 267.6156 15.08835045 94448,6917.896,95.438,540.733,538.788,0.0
53545.0,STARLINK-4475,PAYLOAD,2024-05-04 12:11:37,15.08828265,0.00015,53.2174,210.6394,99.5701,260.546,-2.3402e-05,-6.6e-06,0.0,0 STARLINK-4475,1 53545U 22101U   24125.50807433 -.00000660  00000-0 -23402-4 0  9991,2 53545  53.2174 210.6394 0001500  99.5701 260.5460 15.08828265 94526,6917.916,95.438,540.819,538.744,0.0
53545.0,STARLINK-4475,PAYLOAD,2024-05-05 05:40:51,15.08850501,0.0001524,53.2181,207.3694,100.9418,259.1746,-3.2466e-05,-8.05e-06,0.0,0 STARLINK-4475,1 53545U 22101U   24126.23670437 -.00000805  00000-0 -32466-4 0  9995,2 53545  53.2181 207.3694 0001524 100.9418 259.1746 15.08850501 94639,6917.848,95.437,540.768,538.659,0.0
53545.0,STARLINK-4475,PAYLOAD,2024-05-05 12:02:23,15.0885238,0.0001528,53.217,206.1804,100.3684,259.748,0.00012621,1.722e-05,0.0,0 STARLINK-4475,1 53545U 22101U   24126.50166156  .00001722  00000-0  12621-3 0  9990,2 53545  53.2170 206.1804 0001528 100.3684 259.7480 15.08852380 95369,6917.843,95.437,540.765,538.651,0.0
53545.0,STARLINK-4475,PAYLOAD,2024-05-06 05:31:38,15.08844952,0.0001412,53.2166,202.9111,103.011,257.104,0.00044243,6.761e-05,0.0,0 STARLINK-4475,1 53545U 22101U   24127.23030595  .00006761  00000-0  44243-3 0  9991,2 53545  53.2166 202.9111 0001412 103.0110 257.1040 15.08844952 94780,6917.865,95.437,540.707,538.753,0.0
53545.0,STARLINK-4475,PAYLOAD,2024-05-06 11:53:10,15.08851199,0.0001527,53.2167,201.7226,99.2589,260.8576,0.00073256,0.00011393,0.0,0 STARLINK-4475,1 53545U 22101U   24127.49526597  .00011393  00000-0  73256-3 0  9994,2 53545  53.2167 201.7226 0001527  99.2589 260.8576 15.08851199 95516,6917.846,95.437,540.768,538.655,0.0
53545.0,STARLINK-4475,PAYLOAD,2024-05-06 21:25:29,15.08850266,0.0001438,53.2157,199.9371,91.6073,268.5084,0.00013526,1.866e-05,0.0,0 STARLINK-4475,1 53545U 22101U   24127.89270047  .00001866  00000-0  13526-3 0  9992,2 53545  53.2157 199.9371 0001438  91.6073 268.5084 15.08850266 95578,6917.849,95.437,540.709,538.719,0.0
53545.0,STARLINK-4475,PAYLOAD,2024-05-07 11:43:57,15.0884772,0.0001566,53.2172,197.2617,100.9007,259.2161,4.9179e-05,4.95e-06,0.0,0 STARLINK-4475,1 53545U 22101U   24128.48885887  .00000495  00000-0  49179-4 0  9993,2 53545  53.2172 197.2617 0001566 100.9007 259.2161 15.08847720 94979,6917.857,95.437,540.805,538.638,0.0
